{"type": "FeatureCollection", "features": [ {"type": "Feature", "properties": {"norad_id": 33917, "name": "COSMOS 2251 DEB", "group": "cosmos-2251-debris", "lat": -24.81570950015556, "lon": -71.1506560253123, "alt_km": 763.9028052179492, "timestamp": "2025-12-25T14:48:25.165558+00:00", "meta": {"OBJECT_NAME": "COSMOS 2251 DEB", "OBJECT_ID": "1993-036DW", "EPOCH": "2025-12-24T23:46:28.444800", "MEAN_MOTION": 13.69387187, "ECCENTRICITY": 0.03311453, "INCLINATION": 74.1073, "RA_OF_ASC_NODE": 102.3062, "ARG_OF_PERICENTER": 200.6002, "MEAN_ANOMALY": 158.1505, "EPHEMERIS_TYPE": 0, "CLASSIFICATION_TYPE": "U", "NORAD_CAT_ID": 33917, "ELEMENT_SET_NO": 999, "REV_AT_EPOCH": 83901, "BSTAR": 0.0010097181, "MEAN_MOTION_DOT": 1.268e-05, "MEAN_MOTION_DDOT": 0}, "tle": {"line1": "1 33917U 93036DW  25358.99060700  .00001268  00000+0  10097-2 0  9993", "line2": "2 33917  74.1073 102.3062 0331145 200.6002 158.1505 13.69387187839017"}}, "geometry": {"type": "Point", "coordinates": [-71.1506560253123, -24.81570950015556]}}, {"type": "Feature", "properties": {"norad_id": 33920, "name": "COSMOS 2251 DEB", "group": "cosmos-2251-debris", "lat": 74.0459200453149, "lon": 2.4134115261313434, "alt_km": 717.1083347037866, "timestamp": "2025-12-25T14:48:25.165567+00:00", "meta": {"OBJECT_NAME": "COSMOS 2251 DEB", "OBJECT_ID": "1993-036DZ", "EPOCH": "2025-12-24T03:49:29.683776", "MEAN_MOTION": 14.58442964, "ECCENTRICITY": 0.00377584, "INCLINATION": 74.0614, "RA_OF_ASC_NODE": 276.7258, "ARG_OF_PERICENTER": 281.5069, "MEAN_ANOMALY": 78.1857, "EPHEMERIS_TYPE": 0, "CLASSIFICATION_TYPE": "U", "NORAD_CAT_ID": 33920, "ELEMENT_SET_NO": 999, "REV_AT_EPOCH": 88281, "BSTAR": 0.001697106, "MEAN_MOTION_DOT": 7.93e-05, "MEAN_MOTION_DDOT": 0}, "tle": {"line1": "1 33920U 93036DZ  25358.15937134  .00007930  00000+0  16971-2 0  9998", "line2": "2 33920  74.0614 276.7258 0037758 281.5069  78.1857 14.58442964882819"}}, "geometry": {"type": "Point", "coordinates": [2.4134115261313434, 74.0459200453149]}}, {"type": "Feature", "properties": {"norad_id": 33922, "name": "COSMOS 2251 DEB", "group": "cosmos-2251-debris", "lat": -1.7404993213441877, "lon": -55.88351926244936, "alt_km": 719.6012567835378, "timestamp": "2025-12-25T14:48:25.165576+00:00", "meta": {"OBJECT_NAME": "COSMOS 2251 DEB", "OBJECT_ID": "1993-036EB", "EPOCH": "2025-12-24T18:40:21.249408", "MEAN_MOTION": 14.49550828, "ECCENTRICITY": 0.00231126, "INCLINATION": 74.0468, "RA_OF_ASC_NODE": 125.191, "ARG_OF_PERICENTER": 234.4874, "MEAN_ANOMALY": 251.3114, "EPHEMERIS_TYPE": 0, "CLASSIFICATION_TYPE": "U", "NORAD_CAT_ID": 33922, "ELEMENT_SET_NO": 999, "REV_AT_EPOCH": 88752, "BSTAR": 0.00050960281, "MEAN_MOTION_DOT": 1.934e-05, "MEAN_MOTION_DDOT": 0}, "tle": {"line1": "1 33922U 93036EB  25358.77802372  .00001934  00000+0  50960-3 0  9998", "line2": "2 33922  74.0468 125.1910 0023112 234.4874 251.3114 14.49550828887523"}}, "geometry": {"type": "Point", "coordinates": [-55.88351926244936, -1.7404993213441877]}}, {"type": "Feature", "properties": {"norad_id": 33924, "name": "COSMOS 2251 DEB", "group": "cosmos-2251-debris", "lat": -8.414534704835312, "lon": 71.9492610449909, "alt_km": 1083.9244797873753, "timestamp": "2025-12-25T14:48:25.165585+00:00", "meta": {"OBJECT_NAME": "COSMOS 2251 DEB", "OBJECT_ID": "1993-036ED", "EPOCH": "2025-12-25T03:09:43.742592", "MEAN_MOTION": 13.50239507, "ECCENTRICITY": 0.04038016, "INCLINATION": 73.913, "RA_OF_ASC_NODE": 250.2824, "ARG_OF_PERICENTER": 283.5462, "MEAN_ANOMALY": 72.0972, "EPHEMERIS_TYPE": 0, "CLASSIFICATION_TYPE": "U", "NORAD_CAT_ID": 33924, "ELEMENT_SET_NO": 999, "REV_AT_EPOCH": 82906, "BSTAR": 0.00043504635, "MEAN_MOTION_DOT": 4.37e-06, "MEAN_MOTION_DDOT": 0}, "tle": {"line1": "1 33924U 93036ED  25359.13175628  .00000437  00000+0  43505-3 0  9992", "line2": "2 33924  73.9130 250.2824 0403801 283.5462  72.0972 13.50239507829062"}}, "geometry": {"type": "Point", "coordinates": [71.9492610449909, -8.414534704835312]}}, {"type": "Feature", "properties": {"norad_id": 33928, "name": "COSMOS 2251 DEB", "group": "cosmos-2251-debris", "lat": -66.45374328284971, "lon": -13.10826914911158, "alt_km": 703.5892634002703, "timestamp": "2025-12-25T14:48:25.165595+00:00", "meta": {"OBJECT_NAME": "COSMOS 2251 DEB", "OBJECT_ID": "1993-036EH", "EPOCH": "2025-12-24T19:13:57.193824", "MEAN_MOTION": 14.47426209, "ECCENTRICITY": 0.00620303, "INCLINATION": 73.9253, "RA_OF_ASC_NODE": 29.8554, "ARG_OF_PERICENTER": 321.5269, "MEAN_ANOMALY": 38.1474, "EPHEMERIS_TYPE": 0, "CLASSIFICATION_TYPE": "U", "NORAD_CAT_ID": 33928, "ELEMENT_SET_NO": 999, "REV_AT_EPOCH": 88819, "BSTAR": 0.00024854441, "MEAN_MOTION_DOT": 9.04e-06, "MEAN_MOTION_DDOT": 0}, "tle": {"line1": "1 33928U 93036EH  25358.80135641  .00000904  00000+0  24854-3 0  9995", "line2": "2 33928  73.9253  29.8554 0062030 321.5269  38.1474 14.47426209888198"}}, "geometry": {"type": "Point", "coordinates": [-13.10826914911158, -66.45374328284971]}}, {"type": "Feature", "properties": {"norad_id": 33932, "name": "COSMOS 2251 DEB", "group": "cosmos-2251-debris", "lat": 23.93276233059986, "lon": -60.533075442654166, "alt_km": 737.3827359203015, "timestamp": "2025-12-25T14:48:25.165604+00:00", "meta": {"OBJECT_NAME": "COSMOS 2251 DEB", "OBJECT_ID": "1993-036EM", "EPOCH": "2025-12-25T06:20:54.705120", "MEAN_MOTION": 14.38793762, "ECCENTRICITY": 0.00359565, "INCLINATION": 74.0343, "RA_OF_ASC_NODE": 292.817, "ARG_OF_PERICENTER": 6.0098, "MEAN_ANOMALY": 354.148, "EPHEMERIS_TYPE": 0, "CLASSIFICATION_TYPE": "U", "NORAD_CAT_ID": 33932, "ELEMENT_SET_NO": 999, "REV_AT_EPOCH": 88178, "BSTAR": 0.00048261604, "MEAN_MOTION_DOT": 1.468e-05, "MEAN_MOTION_DDOT": 0}, "tle": {"line1": "1 33932U 93036EM  25359.26452205  .00001468  00000+0  48262-3 0  9994", "line2": "2 33932  74.0343 292.8170 0035956   6.0098 354.1480 14.38793762881780"}}, "geometry": {"type": "Point", "coordinates": [-60.533075442654166, 23.93276233059986]}}, {"type": "Feature", "properties": {"norad_id": 33933, "name": "COSMOS 2251 DEB", "group": "cosmos-2251-debris", "lat": -11.519000344063663, "lon": 33.334216831168746, "alt_km": 753.272133134622, "timestamp": "2025-12-25T14:48:25.165613+00:00", "meta": {"OBJECT_NAME": "COSMOS 2251 DEB", "OBJECT_ID": "1993-036EN", "EPOCH": "2025-12-25T04:48:46.511712", "MEAN_MOTION": 14.33507509, "ECCENTRICITY": 0.00710275, "INCLINATION": 74.0888, "RA_OF_ASC_NODE": 37.4256, "ARG_OF_PERICENTER": 42.1275, "MEAN_ANOMALY": 318.5305, "EPHEMERIS_TYPE": 0, "CLASSIFICATION_TYPE": "U", "NORAD_CAT_ID": 33933, "ELEMENT_SET_NO": 999, "REV_AT_EPOCH": 87963, "BSTAR": 0.00026704982, "MEAN_MOTION_DOT": 7.34e-06, "MEAN_MOTION_DDOT": 0}, "tle": {"line1": "1 33933U 93036EN  25359.20053833  .00000734  00000+0  26705-3 0  9996", "line2": "2 33933  74.0888  37.4256 0071027  42.1275 318.5305 14.33507509879638"}}, "geometry": {"type": "Point", "coordinates": [33.334216831168746, -11.519000344063663]}}, {"type": "Feature", "properties": {"norad_id": 33934, "name": "COSMOS 2251 DEB", "group": "cosmos-2251-debris", "lat": -32.60408331768198, "lon": -93.41519555493161, "alt_km": 691.1576589779916, "timestamp": "2025-12-25T14:48:25.165622+00:00", "meta": {"OBJECT_NAME": "COSMOS 2251 DEB", "OBJECT_ID": "1993-036EP", "EPOCH": "2025-12-25T05:36:08.611200", "MEAN_MOTION": 14.59206777, "ECCENTRICITY": 0.00150918, "INCLINATION": 74.0379, "RA_OF_ASC_NODE": 76.7665, "ARG_OF_PERICENTER": 200.3067, "MEAN_ANOMALY": 159.75, "EPHEMERIS_TYPE": 0, "CLASSIFICATION_TYPE": "U", "NORAD_CAT_ID": 33934, "ELEMENT_SET_NO": 999, "REV_AT_EPOCH": 88921, "BSTAR": 0.00085792415, "MEAN_MOTION_DOT": 4.026e-05, "MEAN_MOTION_DDOT": 0}, "tle": {"line1": "1 33934U 93036EP  25359.23343300  .00004026  00000+0  85792-3 0  9990", "line2": "2 33934  74.0379  76.7665 0015091 200.3067 159.7500 14.59206777889218"}}, "geometry": {"type": "Point", "coordinates": [-93.41519555493161, -32.60408331768198]}}, {"type": "Feature", "properties": {"norad_id": 33936, "name": "COSMOS 2251 DEB", "group": "cosmos-2251-debris", "lat": -14.851821255484484, "lon": -162.77013573137233, "alt_km": 680.0669664159914, "timestamp": "2025-12-25T14:48:25.165631+00:00", "meta": {"OBJECT_NAME": "COSMOS 2251 DEB", "OBJECT_ID": "1993-036ER", "EPOCH": "2025-12-25T02:24:27.152928", "MEAN_MOTION": 14.60343392, "ECCENTRICITY": 0.00267163, "INCLINATION": 74.018, "RA_OF_ASC_NODE": 13.8583, "ARG_OF_PERICENTER": 166.2657, "MEAN_ANOMALY": 193.9242, "EPHEMERIS_TYPE": 0, "CLASSIFICATION_TYPE": "U", "NORAD_CAT_ID": 33936, "ELEMENT_SET_NO": 999, "REV_AT_EPOCH": 89070, "BSTAR": 0.00066624293, "MEAN_MOTION_DOT": 3.209e-05, "MEAN_MOTION_DDOT": 0}, "tle": {"line1": "1 33936U 93036ER  25359.10031427  .00003209  00000+0  66624-3 0  9997", "line2": "2 33936  74.0180  13.8583 0026716 166.2657 193.9242 14.60343392890708"}}, "geometry": {"type": "Point", "coordinates": [-162.77013573137233, -14.851821255484484]}}, {"type": "Feature", "properties": {"norad_id": 33938, "name": "COSMOS 2251 DEB", "group": "cosmos-2251-debris", "lat": 34.79494652149722, "lon": -8.333825215058592, "alt_km": 739.4459716154388, "timestamp": "2025-12-25T14:48:25.165640+00:00", "meta": {"OBJECT_NAME": "COSMOS 2251 DEB", "OBJECT_ID": "1993-036ET", "EPOCH": "2025-12-24T23:57:21.360960", "MEAN_MOTION": 14.46829587, "ECCENTRICITY": 0.00167975, "INCLINATION": 74.0436, "RA_OF_ASC_NODE": 184.2888, "ARG_OF_PERICENTER": 265.4764, "MEAN_ANOMALY": 256.4587, "EPHEMERIS_TYPE": 0, "CLASSIFICATION_TYPE": "U", "NORAD_CAT_ID": 33938, "ELEMENT_SET_NO": 999, "REV_AT_EPOCH": 88577, "BSTAR": 0.00043047221, "MEAN_MOTION_DOT": 1.536e-05, "MEAN_MOTION_DDOT": 0}, "tle": {"line1": "1 33938U 93036ET  25358.99816390  .00001536  00000+0  43047-3 0  9990", "line2": "2 33938  74.0436 184.2888 0016797 265.4764 256.4587 14.46829587885771"}}, "geometry": {"type": "Point", "coordinates": [-8.333825215058592, 34.79494652149722]}}]}